FENGYUN 1C DEB          
1 31087U 99025BGH 26061.52576818  .00005958  00000+0  99196-3 0  9994
2 31087  98.0970  85.2289 0171918  41.2829 110.6675 14.61047096999349
FENGYUN 1C DEB          
1 31088U 99025BGJ 26063.15181487  .00005097  00000+0  20063-2 0  9990
2 31088  99.4008 134.7130 0030559 184.5250 251.8834 14.29425443977123
FENGYUN 1C DEB          
1 31089U 99025BGK 26062.86422653  .00000587  00000+0  44384-3 0  9993
2 31089  98.9564 206.7298 0204370 351.6378 160.6696 13.88478552691851
FENGYUN 1C DEB          
1 31090U 99025BGL 26062.29753204  .00118281  00000+0  22931-2 0  9995
2 31090  98.9794 189.4038 0045018 217.1874 142.6251 15.46134090 20772
FENGYUN 1C DEB          
1 31091U 99025BGM 26062.39339490  .00000724  00000+0  85627-3 0  9998
2 31091  99.2358  39.1957 0290382 123.7572 239.1593 13.54236415627312
FENGYUN 1C DEB          
1 31092U 99025BGN 26060.24413473  .00000801  00000+0  10157-2 0  9996
2 31092  99.7182 178.8883 0325601 302.4864  54.5181 13.46684089929384
FENGYUN 1C DEB          
1 31093U 99025BGP 26062.48243793  .00000418  00000+0  36890-3 0  9998
2 31093  98.5959 259.2792 0208669   4.6982 355.6068 13.80715602956218
FENGYUN 1C DEB          
1 31094U 99025BGQ 26060.85803311  .00002347  00000+0  14815-2 0  9991
2 31094  98.8555 291.5194 0104026 187.3672 172.5971 14.02466616967287
FENGYUN 1C DEB          
1 31095U 99025BGR 26061.33957870  .00000467  00000+0  82482-3 0  9993
2 31095  98.5694 192.9854 0498779   1.4371 358.8050 13.06693721904874
FENGYUN 1C DEB          
1 31097U 99025BGT 26062.17616990  .00011518  00000+0  30408-2 0  9992
2 31097  98.8589 193.7981 0010693  39.6845  85.5023 14.49037419982027
FENGYUN 1C DEB          
1 31098U 99025BGU 26063.08542821  .00019172  00000+0  45436-2 0  9996
2 31098  98.8689 190.6721 0010049   7.4187 352.7155 14.54011599981384
FENGYUN 1C DEB          
1 31099U 99025BGV 26062.17958559  .00000721  00000+0  30208-3 0  9997
2 31099  98.9330 321.5154 0064272  48.1791 114.0583 14.28049111986194
FENGYUN 1C DEB          
1 31146U 99025BGY 26062.25222698  .00002300  00000+0  74747-3 0  9998
2 31146  99.0490   0.9076 0210941 294.6805  63.2542 14.28060793979143
FENGYUN 1C DEB          
1 31148U 99025BHA 26063.13895743  .00003235  00000+0  86128-3 0  9999
2 31148  98.8611 317.0793 0134121 167.7484 192.7021 14.44021510987054
FENGYUN 1C DEB          
1 31150U 99025BHC 26062.99231193  .00000306  00000+0  18737-3 0  9995
2 31150  98.6862  74.1983 0013884 293.3785  95.3187 14.12790216974448
FENGYUN 1C DEB          
1 31151U 99025BHD 26062.53300372  .00005783  00000+0  23635-2 0  9998
2 31151  99.1340  76.4169 0056707 151.8138 208.6130 14.26801326971262
