[{"OBJECT_NAME":"FENGYUN 1C DEB","OBJECT_ID":"1999-025BGH","EPOCH":"2026-03-02T12:37:06.370752","MEAN_MOTION":14.61047096,"ECCENTRICITY":0.01719182,"INCLINATION":98.097,"RA_OF_ASC_NODE":85.2289,"ARG_OF_PERICENTER":41.2829,"MEAN_ANOMALY":110.6675,"EPHEMERIS_TYPE":0,"CLASSIFICATION_TYPE":"U","NORAD_CAT_ID":31087,"ELEMENT_SET_NO":999,"REV_AT_EPOCH":99934,"BSTAR":0.00099196447,"MEAN_MOTION_DOT":5.958e-5,"MEAN_MOTION_DDOT":0},{"OBJECT_NAME":"FENGYUN 1C DEB","OBJECT_ID":"1999-025BGJ","EPOCH":"2026-03-04T03:38:36.804768","MEAN_MOTION":14.29425443,"ECCENTRICITY":0.0030559,"INCLINATION":99.4008,"RA_OF_ASC_NODE":134.713,"ARG_OF_PERICENTER":184.525,"MEAN_ANOMALY":251.8834,"EPHEMERIS_TYPE":0,"CLASSIFICATION_TYPE":"U","NORAD_CAT_ID":31088,"ELEMENT_SET_NO":999,"REV_AT_EPOCH":97712,"BSTAR":0.0020063,"MEAN_MOTION_DOT":5.097e-5,"MEAN_MOTION_DDOT":0},{"OBJECT_NAME":"FENGYUN 1C DEB","OBJECT_ID":"1999-025BGK","EPOCH":"2026-03-03T20:44:29.172192","MEAN_MOTION":13.88478552,"ECCENTRICITY":0.020437,"INCLINATION":98.9564,"RA_OF_ASC_NODE":206.7298,"ARG_OF_PERICENTER":351.6378,"MEAN_ANOMALY":160.6696,"EPHEMERIS_TYPE":0,"CLASSIFICATION_TYPE":"U","NORAD_CAT_ID":31089,"ELEMENT_SET_NO":999,"REV_AT_EPOCH":69185,"BSTAR":0.00044384,"MEAN_MOTION_DOT":5.87e-6,"MEAN_MOTION_DDOT":0},{"OBJECT_NAME":"FENGYUN 1C DEB","OBJECT_ID":"1999-025BGL","EPOCH":"2026-03-03T07:08:26.768256","MEAN_MOTION":15.4613409,"ECCENTRICITY":0.00450183,"INCLINATION":98.9794,"RA_OF_ASC_NODE":189.4038,"ARG_OF_PERICENTER":217.1874,"MEAN_ANOMALY":142.6251,"EPHEMERIS_TYPE":0,"CLASSIFICATION_TYPE":"U","NORAD_CAT_ID":31090,"ELEMENT_SET_NO":999,"REV_AT_EPOCH":2077,"BSTAR":0.0022930591,"MEAN_MOTION_DOT":0.00118281,"MEAN_MOTION_DDOT":0},{"OBJECT_NAME":"FENGYUN 1C DEB","OBJECT_ID":"1999-025BGM","EPOCH":"2026-03-03T09:26:29.319360","MEAN_MOTION":13.54236415,"ECCENTRICITY":0.02903826,"INCLINATION":99.2358,"RA_OF_ASC_NODE":39.1957,"ARG_OF_PERICENTER":123.7572,"MEAN_ANOMALY":239.1593,"EPHEMERIS_TYPE":0,"CLASSIFICATION_TYPE":"U","NORAD_CAT_ID":31091,"ELEMENT_SET_NO":999,"REV_AT_EPOCH":62731,"BSTAR":0.00085626682,"MEAN_MOTION_DOT":7.24e-6,"MEAN_MOTION_DDOT":0},{"OBJECT_NAME":"FENGYUN 1C DEB","OBJECT_ID":"1999-025BGN","EPOCH":"2026-03-01T05:51:33.240672","MEAN_MOTION":13.46684089,"ECCENTRICITY":0.0325601,"INCLINATION":99.7182,"RA_OF_ASC_NODE":178.8883,"ARG_OF_PERICENTER":302.4864,"MEAN_ANOMALY":54.5181,"EPHEMERIS_TYPE":0,"CLASSIFICATION_TYPE":"U","NORAD_CAT_ID":31092,"ELEMENT_SET_NO":999,"REV_AT_EPOCH":92938,"BSTAR":0.0010157,"MEAN_MOTION_DOT":8.01e-6,"MEAN_MOTION_DDOT":0},{"OBJECT_NAME":"FENGYUN 1C DEB","OBJECT_ID":"1999-025BGP","EPOCH":"2026-03-03T11:34:42.637152","MEAN_MOTION":13.80715602,"ECCENTRICITY":0.02086692,"INCLINATION":98.5959,"RA_OF_ASC_NODE":259.2792,"ARG_OF_PERICENTER":4.6982,"MEAN_ANOMALY":355.6068,"EPHEMERIS_TYPE":0,"CLASSIFICATION_TYPE":"U","NORAD_CAT_ID":31093,"ELEMENT_SET_NO":999,"REV_AT_EPOCH":95621,"BSTAR":0.00036890213,"MEAN_MOTION_DOT":4.18e-6,"MEAN_MOTION_DDOT":0},{"OBJECT_NAME":"FENGYUN 1C DEB","OBJECT_ID":"1999-025BGQ","EPOCH":"2026-03-01T20:35:34.060704","MEAN_MOTION":14.02466616,"ECCENTRICITY":0.0104026,"INCLINATION":98.8555,"RA_OF_ASC_NODE":291.5194,"ARG_OF_PERICENTER":187.3672,"MEAN_ANOMALY":172.5971,"EPHEMERIS_TYPE":0,"CLASSIFICATION_TYPE":"U","NORAD_CAT_ID":31094,"ELEMENT_SET_NO":999,"REV_AT_EPOCH":96728,"BSTAR":0.0014815,"MEAN_MOTION_DOT":2.347e-5,"MEAN_MOTION_DDOT":0},{"OBJECT_NAME":"FENGYUN 1C DEB","OBJECT_ID":"1999-025BGR","EPOCH":"2026-03-02T08:08:59.599680","MEAN_MOTION":13.06693721,"ECCENTRICITY":0.04987791,"INCLINATION":98.5694,"RA_OF_ASC_NODE":192.9854,"ARG_OF_PERICENTER":1.4371,"MEAN_ANOMALY":358.805,"EPHEMERIS_TYPE":0,"CLASSIFICATION_TYPE":"U","NORAD_CAT_ID":31095,"ELEMENT_SET_NO":999,"REV_AT_EPOCH":90487,"BSTAR":0.00082482301,"MEAN_MOTION_DOT":4.67e-6,"MEAN_MOTION_DDOT":0},{"OBJECT_NAME":"FENGYUN 1C DEB","OBJECT_ID":"1999-025BGT","EPOCH":"2026-03-03T04:13:41.079360","MEAN_MOTION":14.49037419,"ECCENTRICITY":0.0010693,"INCLINATION":98.8589,"RA_OF_ASC_NODE":193.7981,"ARG_OF_PERICENTER":39.6845,"MEAN_ANOMALY":85.5023,"EPHEMERIS_TYPE":0,"CLASSIFICATION_TYPE":"U","NORAD_CAT_ID":31097,"ELEMENT_SET_NO":999,"REV_AT_EPOCH":98202,"BSTAR":0.0030408159,"MEAN_MOTION_DOT":0.00011518,"MEAN_MOTION_DDOT":0},{"OBJECT_NAME":"FENGYUN 1C DEB","OBJECT_ID":"1999-025BGU","EPOCH":"2026-03-04T02:03:00.997344","MEAN_MOTION":14.54011599,"ECCENTRICITY":0.0010049,"INCLINATION":98.8689,"RA_OF_ASC_NODE":190.6721,"ARG_OF_PERICENTER":7.4187,"MEAN_ANOMALY":352.7155,"EPHEMERIS_TYPE":0,"CLASSIFICATION_TYPE":"U","NORAD_CAT_ID":31098,"ELEMENT_SET_NO":999,"REV_AT_EPOCH":98138,"BSTAR":0.0045436,"MEAN_MOTION_DOT":0.00019172,"MEAN_MOTION_DDOT":0},{"OBJECT_NAME":"FENGYUN 1C DEB","OBJECT_ID":"1999-025BGV","EPOCH":"2026-03-03T04:18:36.194976","MEAN_MOTION":14.28049111,"ECCENTRICITY":0.00642727,"INCLINATION":98.933,"RA_OF_ASC_NODE":321.5154,"ARG_OF_PERICENTER":48.1791,"MEAN_ANOMALY":114.0583,"EPHEMERIS_TYPE":0,"CLASSIFICATION_TYPE":"U","NORAD_CAT_ID":31099,"ELEMENT_SET_NO":999,"REV_AT_EPOCH":98619,"BSTAR":0.00030208381,"MEAN_MOTION_DOT":7.21e-6,"MEAN_MOTION_DDOT":0},{"OBJECT_NAME":"FENGYUN 1C DEB","OBJECT_ID":"1999-025BGY","EPOCH":"2026-03-03T06:03:12.411072","MEAN_MOTION":14.28060793,"ECCENTRICITY":0.02109412,"INCLINATION":99.049,"RA_OF_ASC_NODE":0.9076,"ARG_OF_PERICENTER":294.6805,"MEAN_ANOMALY":63.2542,"EPHEMERIS_TYPE":0,"CLASSIFICATION_TYPE":"U","NORAD_CAT_ID":31146,"ELEMENT_SET_NO":999,"REV_AT_EPOCH":97914,"BSTAR":0.00074746561,"MEAN_MOTION_DOT":2.3e-5,"MEAN_MOTION_DDOT":0},{"OBJECT_NAME":"FENGYUN 1C DEB","OBJECT_ID":"1999-025BHA","EPOCH":"2026-03-04T03:20:05.921952","MEAN_MOTION":14.4402151,"ECCENTRICITY":0.0134121,"INCLINATION":98.8611,"RA_OF_ASC_NODE":317.0793,"ARG_OF_PERICENTER":167.7484,"MEAN_ANOMALY":192.7021,"EPHEMERIS_TYPE":0,"CLASSIFICATION_TYPE":"U","NORAD_CAT_ID":31148,"ELEMENT_SET_NO":999,"REV_AT_EPOCH":98705,"BSTAR":0.00086128,"MEAN_MOTION_DOT":3.235e-5,"MEAN_MOTION_DDOT":0},{"OBJECT_NAME":"FENGYUN 1C DEB","OBJECT_ID":"1999-025BHC","EPOCH":"2026-03-03T23:48:55.750752","MEAN_MOTION":14.12790216,"ECCENTRICITY":0.0013884,"INCLINATION":98.6862,"RA_OF_ASC_NODE":74.1983,"ARG_OF_PERICENTER":293.3785,"MEAN_ANOMALY":95.3187,"EPHEMERIS_TYPE":0,"CLASSIFICATION_TYPE":"U","NORAD_CAT_ID":31150,"ELEMENT_SET_NO":999,"REV_AT_EPOCH":97444,"BSTAR":0.00018737,"MEAN_MOTION_DOT":3.06e-6,"MEAN_MOTION_DDOT":0},{"OBJECT_NAME":"FENGYUN 1C DEB","OBJECT_ID":"1999-025BHD","EPOCH":"2026-03-03T12:47:31.521408","MEAN_MOTION":14.26801326,"ECCENTRICITY":0.0056707,"INCLINATION":99.134,"RA_OF_ASC_NODE":76.4169,"ARG_OF_PERICENTER":151.8138,"MEAN_ANOMALY":208.613,"EPHEMERIS_TYPE":0,"CLASSIFICATION_TYPE":"U","NORAD_CAT_ID":31151,"ELEMENT_SET_NO":999,"REV_AT_EPOCH":97126,"BSTAR":0.0023635,"MEAN_MOTION_DOT":5.783e-5,"MEAN_MOTION_DDOT":0}]
